H1 CPF  1  MCC 2022  4 25 15  6151 larets
H2  0304206 5557    27944 2022 04 24 23 45 00 2022 04 29 23 57 00   180 1 1  0 0 0
H9
10 0 59694 68220.000000 0     -1562275.536      6386201.799      2564510.523
10 0 59694 68400.000000 0     -1141274.586      5861207.196      3754630.868
10 0 59694 68580.000000 0      -695364.774      5110922.516      4806718.997
10 0 59694 68760.000000 0      -246376.041      4162339.050      5682079.135
10 0 59694 68940.000000 0       184555.649      3050286.548      6348544.220
10 0 59694 69120.000000 0       577955.738      1816099.722      6781651.305
10 0 59694 69300.000000 0       916873.398       506034.627      6965520.167
10 0 59694 69480.000000 0      1187603.202      -830497.037      6893414.011
10 0 59694 69660.000000 0      1380239.064     -2142810.661      6567978.153
10 0 59694 69840.000000 0      1489041.506     -3380891.922      6001149.432
10 0 59694 70020.000000 0      1512604.611     -4497331.870      5213732.614
10 0 59694 70200.000000 0      1453818.351     -5449177.234      4234652.804
10 0 59694 70380.000000 0      1319632.118     -6199632.702      3099909.075
10 0 59694 70560.000000 0      1120625.436     -6719542.368      1851244.138
10 0 59694 70740.000000 0       870403.937     -6988571.399       534582.786
10 0 59694 70920.000000 0       584851.453     -6996035.812      -801702.138
10 0 59694 71100.000000 0       281273.914     -6741324.896     -2108629.856
10 0 59694 71280.000000 0       -22512.039     -6233888.600     -3338457.622
10 0 59694 71460.000000 0      -309095.088     -5492814.189     -4446447.503
10 0 59694 71640.000000 0      -562346.341     -4546019.917     -5392485.258
10 0 59694 71820.000000 0      -768213.471     -3429118.948     -6142485.535
10 0 59694 72000.000000 0      -915395.927     -2184020.385     -6669546.938
10 0 59694 72180.000000 0      -995875.900      -857332.045     -6954833.284
10 0 59694 72360.000000 0     -1005289.186       501370.043     -6988172.468
10 0 59694 72540.000000 0      -943124.370      1841349.720     -6768372.334
10 0 59694 72720.000000 0      -812746.242      3112545.189     -6303257.248
10 0 59694 72900.000000 0      -621243.595      4267388.811     -5609428.753
10 0 59694 73080.000000 0      -379102.971      5262565.922     -4711743.208
10 0 59694 73260.000000 0       -99718.284      6060655.481     -3642505.260
10 0 59694 73440.000000 0       201248.487      6631590.553     -2440381.409
10 0 59694 73620.000000 0       506633.429      6953870.453     -1149055.568
10 0 59694 73800.000000 0       798631.206      7015461.230       184339.511
10 0 59694 73980.000000 0      1059709.848      6814323.823      1510961.180
10 0 59694 74160.000000 0      1273529.305      6358528.294      2782091.153
10 0 59694 74340.000000 0      1425811.167      5665946.098      3950978.828
10 0 59694 74520.000000 0      1505118.960      4763533.256      4974614.588
10 0 59694 74700.000000 0      1503505.594      3686231.741      5815354.317
10 0 59694 74880.000000 0      1416989.721      2475551.319      6442310.987
10 0 59694 75060.000000 0      1245845.897      1177917.901      6832478.233
10 0 59694 75240.000000 0       994693.441      -157150.704      6971554.537
10 0 59694 75420.000000 0       672381.468     -1478959.847      6854446.982
10 0 59694 75600.000000 0       291672.152     -2737582.887      6485454.344
10 0 59694 75780.000000 0      -131268.816     -3885771.713      5878114.482
10 0 59694 75960.000000 0      -577552.173     -4880756.701      5054716.454
10 0 59694 76140.000000 0     -1026389.101     -5685874.963      4045506.774
10 0 59694 76320.000000 0     -1456035.413     -6271980.881      2887594.609
10 0 59694 76500.000000 0     -1844811.467     -6618557.633      1623575.723
10 0 59694 76680.000000 0     -2172148.303     -6714476.936       299934.143
10 0 59694 76860.000000 0     -2419603.280     -6558364.471     -1034720.237
10 0 59694 77040.000000 0     -2571788.817     -6158552.064     -2331493.520
10 0 59694 77220.000000 0     -2617170.576     -5532625.082     -3543044.571
10 0 59694 77400.000000 0     -2548693.794     -4706592.672     -4625335.206
10 0 59694 77580.000000 0     -2364207.572     -3713734.886     -5539213.925
10 0 59694 77760.000000 0     -2066675.521     -2593202.223     -6251778.790
10 0 59694 77940.000000 0     -1664169.555     -1388436.860     -6737487.881
10 0 59694 78120.000000 0     -1169649.828      -145483.382     -6978991.292
10 0 59694 78300.000000 0      -600547.127      1088742.360     -6967677.277
10 0 59694 78480.000000 0        21839.800      2268172.029     -6703939.677
10 0 59694 78660.000000 0       673114.307      3349250.286     -6197169.130
10 0 59694 78840.000000 0      1326705.270      4292509.620     -5465465.392
10 0 59694 79020.000000 0      1954916.640      5064005.115     -4535062.488
10 0 59694 79200.000000 0      2530070.741      5636565.927     -3439472.758
10 0 59694 79380.000000 0      3025704.064      5990810.791     -2218353.010
10 0 59694 79560.000000 0      3417766.425      6115878.413      -916117.749
10 0 59694 79740.000000 0      3685764.053      6009826.436       419666.105
10 0 59694 79920.000000 0      3813781.899      5679663.968      1740041.092
10 0 59694 80100.000000 0      3791331.175      5141009.481      2996498.373
10 0 59694 80280.000000 0      3613973.001      4417387.806      4142817.932
10 0 59694 80460.000000 0      3283681.581      3539192.424      5136820.464
10 0 59694 80640.000000 0      2808922.921      2542376.335      5941955.090
10 0 59694 80820.000000 0      2204448.893      1466935.337      6528648.151
10 0 59694 81000.000000 0      1490827.851       355264.281      6875376.004
10 0 59694 81180.000000 0       693723.092      -749540.867      6969431.799
10 0 59694 81360.000000 0      -157047.901     -1805370.046      6807376.721
10 0 59694 81540.000000 0     -1028644.217     -2772722.627      6395160.253
10 0 59694 81720.000000 0     -1886479.434     -3616203.099      5747903.518
10 0 59694 81900.000000 0     -2695598.449     -4305837.734      4889363.751
10 0 59694 82080.000000 0     -3422120.763     -4818176.004      3851089.120
10 0 59694 82260.000000 0     -4034685.342     -5137125.479      2671264.769
10 0 59694 82440.000000 0     -4505819.443     -5254478.779      1393292.770
10 0 59694 82620.000000 0     -4813172.658     -5170109.296        64160.884
10 0 59694 82800.000000 0     -4940552.782     -4891821.741     -1267336.250
10 0 59694 82980.000000 0     -4878706.810     -4434865.498     -2552446.063
10 0 59694 83160.000000 0     -4625802.701     -3821135.402     -3744288.681
10 0 59694 83340.000000 0     -4187594.521     -3078113.666     -4799579.225
10 0 59694 83520.000000 0     -3577275.599     -2237618.742     -5680176.028
10 0 59694 83700.000000 0     -2815036.030     -1334426.353     -6354402.591
10 0 59694 83880.000000 0     -1927354.267      -404829.394     -6798109.379
10 0 59694 84060.000000 0      -946055.447       514802.150     -6995454.335
10 0 59694 84240.000000 0        92819.784      1389405.820     -6939398.177
10 0 59694 84420.000000 0      1150301.921      2186519.437     -6631924.889
10 0 59694 84600.000000 0      2185908.564      2877451.516     -6083987.590
10 0 59694 84780.000000 0      3159154.651      3438299.524     -5315167.545
10 0 59694 84960.000000 0      4031107.826      3850781.866     -4353049.091
10 0 59694 85140.000000 0      4765944.488      4102860.353     -3232315.866
10 0 59694 85320.000000 0      5332446.903      4189121.599     -1993570.229
10 0 59694 85500.000000 0      5705367.335      4110892.621      -681902.828
10 0 59694 85680.000000 0      5866590.212      3876077.400       654743.165
10 0 59694 85860.000000 0      5806026.664      3498714.217      1967350.672
10 0 59694 86040.000000 0      5522185.736      2998267.225      3207677.098
10 0 59694 86220.000000 0      5022381.726      2398688.182      4330087.486
10 0 59695     0.000000 0      4322562.142      1727294.583      5293282.918
10 0 59695   180.000000 0      3446774.364      1013528.820      6061846.882
10 0 59695   360.000000 0      2426291.166       287659.333      6607554.191
10 0 59695   540.000000 0      1298447.464      -420510.675      6910386.927
10 0 59695   720.000000 0       105241.586     -1082871.791      6959250.758
10 0 59695   900.000000 0     -1108256.664     -1674132.673      6752366.119
10 0 59695  1080.000000 0     -2295626.613     -2172795.267      6297323.954
10 0 59695  1260.000000 0     -3410883.474     -2561944.624      5610815.784
10 0 59695  1440.000000 0     -4410285.457     -2829835.619      4718050.078
10 0 59695  1620.000000 0     -5254092.844     -2970253.494      3651841.344
10 0 59695  1800.000000 0     -5908192.752     -2982626.335      2451405.382
10 0 59695  1980.000000 0     -6345524.319     -2871889.789      1160903.853
10 0 59695  2160.000000 0     -6547233.152     -2648109.592      -172220.325
10 0 59695  2340.000000 0     -6503487.470     -2325874.459     -1499042.642
10 0 59695  2520.000000 0     -6213913.343     -1923495.225     -2771010.121
10 0 59695  2700.000000 0     -5687627.011     -1462056.472     -3941756.003
10 0 59695  2880.000000 0     -4942879.298      -964375.340     -4968796.100
10 0 59695  3060.000000 0     -4006340.956      -453921.871     -5815042.481
10 0 59695  3240.000000 0     -2912072.131        46245.648     -6450081.844
10 0 59695  3420.000000 0     -1700235.757       514480.591     -6851184.435
10 0 59695  3600.000000 0      -415614.153       931442.177     -7004034.081
10 0 59695  3780.000000 0       894016.984      1280858.657     -6903175.833
10 0 59695  3960.000000 0      2179610.819      1550137.885     -6552190.211
10 0 59695  4140.000000 0      3392635.098      1730812.012     -5963588.545
10 0 59695  4320.000000 0      4486865.499      1818801.037     -5158418.678
10 0 59695  4500.000000 0      5420134.198      1814487.675     -4165591.602
10 0 59695  4680.000000 0      6155980.959      1722600.421     -3020926.129
99
